[{"OBJECT_NAME":"NANOSATC-BR1","OBJECT_ID":"2014-033Q","EPOCH":"2026-03-09T23:35:03.168384","MEAN_MOTION":15.28136801,"ECCENTRICITY":0.00046435,"INCLINATION":98.0845,"RA_OF_ASC_NODE":92.7804,"ARG_OF_PERICENTER":147.6715,"MEAN_ANOMALY":212.4808,"EPHEMERIS_TYPE":0,"CLASSIFICATION_TYPE":"U","NORAD_CAT_ID":40024,"ELEMENT_SET_NO":999,"REV_AT_EPOCH":63881,"BSTAR":0.00074295057,"MEAN_MOTION_DOT":0.00020336,"MEAN_MOTION_DDOT":0},{"OBJECT_NAME":"STARLINK-31972","OBJECT_ID":"2024-106B","EPOCH":"2026-03-09T02:44:34.849536","MEAN_MOTION":15.27594941,"ECCENTRICITY":0.00030739,"INCLINATION":43.009,"RA_OF_ASC_NODE":335.8745,"ARG_OF_PERICENTER":262.8714,"MEAN_ANOMALY":97.1788,"EPHEMERIS_TYPE":0,"CLASSIFICATION_TYPE":"U","NORAD_CAT_ID":59923,"ELEMENT_SET_NO":999,"REV_AT_EPOCH":10048,"BSTAR":-0.00014339191,"MEAN_MOTION_DOT":-4.209e-5,"MEAN_MOTION_DDOT":0}]
